{"type": "FeatureCollection", "features": [ {"type": "Feature", "properties": {"norad_id": 28659, "name": "DIRECTV 8", "group": "intelsat", "lat": 0.02785738552895235, "lon": 61.82648399158859, "alt_km": 35795.71964152285, "timestamp": "2025-12-24T05:51:19.272927+00:00", "meta": {"OBJECT_NAME": "DIRECTV 8", "OBJECT_ID": "2005-019A", "EPOCH": "2025-12-23T17:41:55.546944", "MEAN_MOTION": 1.00271595, "ECCENTRICITY": 0.00029818, "INCLINATION": 0.018, "RA_OF_ASC_NODE": 23.2581, "ARG_OF_PERICENTER": 259.0434, "MEAN_ANOMALY": 316.6613, "EPHEMERIS_TYPE": 0, "CLASSIFICATION_TYPE": "U", "NORAD_CAT_ID": 28659, "ELEMENT_SET_NO": 999, "REV_AT_EPOCH": 7531, "BSTAR": 0, "MEAN_MOTION_DOT": 2.2e-07, "MEAN_MOTION_DDOT": 0}, "tle": {"line1": "1 28659U 05019A   25357.73744846  .00000022  00000+0  00000+0 0  9992", "line2": "2 28659   0.0180  23.2581 0002981 259.0434 316.6613  1.00271595 75311"}}, "geometry": {"type": "Point", "coordinates": [61.82648399158859, 0.02785738552895235]}}, {"type": "Feature", "properties": {"norad_id": 28702, "name": "GALAXY 28 (G-28)", "group": "intelsat", "lat": 0.5653749241503712, "lon": 92.1381904609762, "alt_km": 35798.87568985399, "timestamp": "2025-12-24T05:51:19.272939+00:00", "meta": {"OBJECT_NAME": "GALAXY 28 (G-28)", "OBJECT_ID": "2005-022A", "EPOCH": "2025-12-20T00:49:30.482112", "MEAN_MOTION": 1.00271047, "ECCENTRICITY": 0.00029384, "INCLINATION": 2.8382, "RA_OF_ASC_NODE": 81.1982, "ARG_OF_PERICENTER": 194.0723, "MEAN_ANOMALY": 97.2981, "EPHEMERIS_TYPE": 0, "CLASSIFICATION_TYPE": "U", "NORAD_CAT_ID": 28702, "ELEMENT_SET_NO": 999, "REV_AT_EPOCH": 5017, "BSTAR": 0, "MEAN_MOTION_DOT": -1.65e-06, "MEAN_MOTION_DDOT": 0}, "tle": {"line1": "1 28702U 05022A   25354.03438058 -.00000165  00000+0  00000+0 0  9999", "line2": "2 28702   2.8382  81.1982 0002938 194.0723  97.2981  1.00271047 50172"}}, "geometry": {"type": "Point", "coordinates": [92.1381904609762, 0.5653749241503712]}}, {"type": "Feature", "properties": {"norad_id": 29236, "name": "GALAXY 16 (G-16)", "group": "intelsat", "lat": 0.018326603991825167, "lon": 81.83872738431111, "alt_km": 35796.64362130825, "timestamp": "2025-12-24T05:51:19.272951+00:00", "meta": {"OBJECT_NAME": "GALAXY 16 (G-16)", "OBJECT_ID": "2006-023A", "EPOCH": "2025-12-23T16:05:04.821216", "MEAN_MOTION": 1.00271325, "ECCENTRICITY": 0.00025095, "INCLINATION": 0.0451, "RA_OF_ASC_NODE": 194.2073, "ARG_OF_PERICENTER": 78.9639, "MEAN_ANOMALY": 321.5434, "EPHEMERIS_TYPE": 0, "CLASSIFICATION_TYPE": "U", "NORAD_CAT_ID": 29236, "ELEMENT_SET_NO": 999, "REV_AT_EPOCH": 7121, "BSTAR": 0, "MEAN_MOTION_DOT": -1.06e-06, "MEAN_MOTION_DDOT": 0}, "tle": {"line1": "1 29236U 06023A   25357.67019469 -.00000106  00000+0  00000+0 0  9993", "line2": "2 29236   0.0451 194.2073 0002509  78.9639 321.5434  1.00271325 71212"}}, "geometry": {"type": "Point", "coordinates": [81.83872738431111, 0.018326603991825167]}}, {"type": "Feature", "properties": {"norad_id": 29494, "name": "DIRECTV 9S", "group": "intelsat", "lat": -0.09771122324628662, "lon": 79.65486205955119, "alt_km": 35797.83520364879, "timestamp": "2025-12-24T05:51:19.272962+00:00", "meta": {"OBJECT_NAME": "DIRECTV 9S", "OBJECT_ID": "2006-043A", "EPOCH": "2025-12-23T16:04:27.379776", "MEAN_MOTION": 1.00272016, "ECCENTRICITY": 0.00029275, "INCLINATION": 1.9666, "RA_OF_ASC_NODE": 83.0964, "ARG_OF_PERICENTER": 194.5447, "MEAN_ANOMALY": 314.724, "EPHEMERIS_TYPE": 0, "CLASSIFICATION_TYPE": "U", "NORAD_CAT_ID": 29494, "ELEMENT_SET_NO": 999, "REV_AT_EPOCH": 4962, "BSTAR": 0, "MEAN_MOTION_DOT": -9.3e-07, "MEAN_MOTION_DDOT": 0}, "tle": {"line1": "1 29494U 06043A   25357.66976134 -.00000093  00000+0  00000+0 0  9996", "line2": "2 29494   1.9666  83.0964 0002927 194.5447 314.7240  1.00272016 49623"}}, "geometry": {"type": "Point", "coordinates": [79.65486205955119, -0.09771122324628662]}}, {"type": "Feature", "properties": {"norad_id": 31307, "name": "GALAXY 17 (G-17)", "group": "intelsat", "lat": 0.6192725656739887, "lon": 95.81863366839916, "alt_km": 35807.844681306924, "timestamp": "2025-12-24T05:51:19.272974+00:00", "meta": {"OBJECT_NAME": "GALAXY 17 (G-17)", "OBJECT_ID": "2007-016B", "EPOCH": "2025-12-23T19:34:36.930144", "MEAN_MOTION": 1.00269416, "ECCENTRICITY": 0.00053529, "INCLINATION": 2.5261, "RA_OF_ASC_NODE": 82.1608, "ARG_OF_PERICENTER": 172.5304, "MEAN_ANOMALY": 46.5726, "EPHEMERIS_TYPE": 0, "CLASSIFICATION_TYPE": "U", "NORAD_CAT_ID": 31307, "ELEMENT_SET_NO": 999, "REV_AT_EPOCH": 6804, "BSTAR": 0, "MEAN_MOTION_DOT": -1.86e-06, "MEAN_MOTION_DDOT": 0}, "tle": {"line1": "1 31307U 07016B   25357.81570521 -.00000186  00000+0  00000+0 0  9993", "line2": "2 31307   2.5261  82.1608 0005352 172.5304  46.5726  1.00269416 68041"}}, "geometry": {"type": "Point", "coordinates": [95.81863366839916, 0.6192725656739887]}}, {"type": "Feature", "properties": {"norad_id": 31862, "name": "DIRECTV 10", "group": "intelsat", "lat": 0.004459563448383409, "lon": 78.05174439979356, "alt_km": 35786.73223007194, "timestamp": "2025-12-24T05:51:19.272986+00:00", "meta": {"OBJECT_NAME": "DIRECTV 10", "OBJECT_ID": "2007-032A", "EPOCH": "2025-12-23T16:04:04.915776", "MEAN_MOTION": 1.00272171, "ECCENTRICITY": 2.717e-05, "INCLINATION": 0.0092, "RA_OF_ASC_NODE": 113.2913, "ARG_OF_PERICENTER": 95.817, "MEAN_ANOMALY": 21.5753, "EPHEMERIS_TYPE": 0, "CLASSIFICATION_TYPE": "U", "NORAD_CAT_ID": 31862, "ELEMENT_SET_NO": 999, "REV_AT_EPOCH": 4383, "BSTAR": 0, "MEAN_MOTION_DOT": -8.2e-07, "MEAN_MOTION_DDOT": 0}, "tle": {"line1": "1 31862U 07032A   25357.66950134 -.00000082  00000+0  00000+0 0  9997", "line2": "2 31862   0.0092 113.2913 0000271  95.8170  21.5753  1.00272171 43835"}}, "geometry": {"type": "Point", "coordinates": [78.05174439979356, 0.004459563448383409]}}, {"type": "Feature", "properties": {"norad_id": 32253, "name": "INTELSAT 11 (IS-11)", "group": "intelsat", "lat": -3.1038872634992636, "lon": -3.924720022374495, "alt_km": 36140.79961394271, "timestamp": "2025-12-24T05:51:19.272997+00:00", "meta": {"OBJECT_NAME": "INTELSAT 11 (IS-11)", "OBJECT_ID": "2007-044B", "EPOCH": "2025-12-23T17:23:57.267168", "MEAN_MOTION": 0.99052963, "ECCENTRICITY": 0.00085689, "INCLINATION": 3.107, "RA_OF_ASC_NODE": 80.8548, "ARG_OF_PERICENTER": 170.4374, "MEAN_ANOMALY": 279.6071, "EPHEMERIS_TYPE": 0, "CLASSIFICATION_TYPE": "U", "NORAD_CAT_ID": 32253, "ELEMENT_SET_NO": 999, "REV_AT_EPOCH": 6671, "BSTAR": 0, "MEAN_MOTION_DOT": -1.53e-06, "MEAN_MOTION_DDOT": 0}, "tle": {"line1": "1 32253U 07044B   25357.72496837 -.00000153  00000+0  00000+0 0  9996", "line2": "2 32253   3.1070  80.8548 0008568 170.4374 279.6071  0.99052963 66719"}}, "geometry": {"type": "Point", "coordinates": [-3.924720022374495, -3.1038872634992636]}}, {"type": "Feature", "properties": {"norad_id": 32388, "name": "HORIZONS-2", "group": "intelsat", "lat": 0.9037353102145648, "lon": 107.03052403932274, "alt_km": 35806.14020831261, "timestamp": "2025-12-24T05:51:19.273009+00:00", "meta": {"OBJECT_NAME": "HORIZONS-2", "OBJECT_ID": "2007-063B", "EPOCH": "2025-12-23T21:20:27.268800", "MEAN_MOTION": 1.00270191, "ECCENTRICITY": 0.00046985, "INCLINATION": 2.1488, "RA_OF_ASC_NODE": 82.8412, "ARG_OF_PERICENTER": 195.9299, "MEAN_ANOMALY": 60.2233, "EPHEMERIS_TYPE": 0, "CLASSIFICATION_TYPE": "U", "NORAD_CAT_ID": 32388, "ELEMENT_SET_NO": 999, "REV_AT_EPOCH": 6605, "BSTAR": 0, "MEAN_MOTION_DOT": -2.33e-06, "MEAN_MOTION_DDOT": 0}, "tle": {"line1": "1 32388U 07063B   25357.88920450 -.00000233  00000+0  00000+0 0  9995", "line2": "2 32388   2.1488  82.8412 0004698 195.9299  60.2233  1.00270191 66059"}}, "geometry": {"type": "Point", "coordinates": [107.03052403932274, 0.9037353102145648]}}, {"type": "Feature", "properties": {"norad_id": 32729, "name": "DIRECTV 11", "group": "intelsat", "lat": 0.01438455736193661, "lon": 81.63093958866746, "alt_km": 35786.709413245546, "timestamp": "2025-12-24T05:51:19.273021+00:00", "meta": {"OBJECT_NAME": "DIRECTV 11", "OBJECT_ID": "2008-013A", "EPOCH": "2025-12-23T11:18:33.914304", "MEAN_MOTION": 1.00266312, "ECCENTRICITY": 7.118e-05, "INCLINATION": 0.0383, "RA_OF_ASC_NODE": 192.497, "ARG_OF_PERICENTER": 321.3622, "MEAN_ANOMALY": 8.8504, "EPHEMERIS_TYPE": 0, "CLASSIFICATION_TYPE": "U", "NORAD_CAT_ID": 32729, "ELEMENT_SET_NO": 999, "REV_AT_EPOCH": 4383, "BSTAR": 0, "MEAN_MOTION_DOT": -1.04e-06, "MEAN_MOTION_DDOT": 0}, "tle": {"line1": "1 32729U 08013A   25357.47122586 -.00000104  00000+0  00000+0 0  9996", "line2": "2 32729   0.0383 192.4970 0000711 321.3622   8.8504  1.00266312 43833"}}, "geometry": {"type": "Point", "coordinates": [81.63093958866746, 0.01438455736193661]}}, {"type": "Feature", "properties": {"norad_id": 32951, "name": "GALAXY 18 (G-18)", "group": "intelsat", "lat": 0.020502916014386086, "lon": 57.85955049736802, "alt_km": 35795.65198379891, "timestamp": "2025-12-24T05:51:19.273050+00:00", "meta": {"OBJECT_NAME": "GALAXY 18 (G-18)", "OBJECT_ID": "2008-024A", "EPOCH": "2025-12-23T17:40:55.643232", "MEAN_MOTION": 1.00271951, "ECCENTRICITY": 0.00029616, "INCLINATION": 0.0145, "RA_OF_ASC_NODE": 299.576, "ARG_OF_PERICENTER": 337.9968, "MEAN_ANOMALY": 317.1726, "EPHEMERIS_TYPE": 0, "CLASSIFICATION_TYPE": "U", "NORAD_CAT_ID": 32951, "ELEMENT_SET_NO": 999, "REV_AT_EPOCH": 4409, "BSTAR": 0, "MEAN_MOTION_DOT": 4.6e-07, "MEAN_MOTION_DDOT": 0}, "tle": {"line1": "1 32951U 08024A   25357.73675513  .00000046  00000+0  00000+0 0  9991", "line2": "2 32951   0.0145 299.5760 0002961 337.9968 317.1726  1.00271951 44093"}}, "geometry": {"type": "Point", "coordinates": [57.85955049736802, 0.020502916014386086]}}]}